OBJECT_NAME,OBJECT_ID,EPOCH,MEAN_MOTION,ECCENTRICITY,INCLINATION,RA_OF_ASC_NODE,ARG_OF_PERICENTER,MEAN_ANOMALY,EPHEMERIS_TYPE,CLASSIFICATION_TYPE,NORAD_CAT_ID,ELEMENT_SET_NO,REV_AT_EPOCH,BSTAR,MEAN_MOTION_DOT,MEAN_MOTION_DDOT
COSMOS 2058,1990-010A,2026-07-15T18:56:38.150880,15.12158485,.00079691,82.4672,281.1461,247.4979,112.5408,0,U,20465,999,96159,.97362065E-4,.1709E-4,0
SL-14 R/B,1990-010B,2026-07-15T21:33:46.262304,14.83663310,.0018415,82.5035,146.9822,234.7833,125.1659,0,U,20466,999,94749,.18567068E-4,.177E-5,0
SL-14 R/B,1990-018B,2026-07-15T18:28:20.653536,14.82234340,.00169903,82.5217,103.3934,35.0744,325.1585,0,U,20511,999,94155,.24020859E-4,.216E-5,0
HST,1990-037B,2026-07-15T12:00:30.574368,15.31063070,.00021916,28.4723,247.0189,106.0764,254.0074,0,U,20580,999,79291,.10487846E-3,.3469E-4,0
SL-16 R/B,1990-046B,2026-07-15T22:21:28.989792,14.15025153,.00123868,70.9987,28.5771,113.0227,247.2203,0,U,20625,999,86653,.16082393E-3,.264E-5,0
COSMOS 2084,1990-055A,2026-07-15T13:02:28.972032,15.06224618,.00081316,62.7883,259.2988,318.5258,41.5225,0,U,20663,999,95557,.69635034E-4,.823E-5,0
SL-6 R/B(2),1990-055D,2026-07-15T21:41:40.248384,15.04089660,.00452692,62.7806,177.6488,9.0960,351.0948,0,U,20666,999,95747,.84462679E-4,.991E-5,0
SL-8 R/B,1990-078B,2026-07-15T22:42:01.251648,14.93590351,.03433247,82.9039,135.6316,300.9827,55.8080,0,U,20775,999,82841,.27650732E-3,.9752E-4,0
SL-8 R/B,1991-006B,2026-07-15T18:08:02.364288,13.77509335,.00234048,82.9407,74.7791,39.0520,27.4621,0,U,21088,999,78170,.77479367E-4,.93E-6,0
OKEAN-3,1991-039A,2026-07-15T14:06:24.469344,15.05436046,.00124288,82.5143,212.8374,253.2175,106.7688,0,U,21397,999,88427,.12513221E-3,.1826E-4,0
COSMOS 2151,1991-042A,2026-07-15T17:38:40.354656,15.00513993,.00119081,82.4982,320.1298,353.6763,6.4309,0,U,21422,999,88239,.58184182E-4,.761E-5,0
SL-14 R/B,1991-042B,2026-07-15T18:46:31.657440,14.81918278,.00170247,82.4932,100.0810,174.9905,185.1483,0,U,21423,999,87204,.19944189E-4,.182E-5,0
ERS-1,1991-050A,2026-07-15T22:34:47.833824,14.39533469,.00318967,98.7796,218.3409,179.5534,180.5687,0,U,21574,999,83418,.66499703E-4,.162E-5,0
ARIANE 40 R/B,1991-050F,2026-07-15T03:11:00.370752,14.42971868,.00041607,98.1863,243.4589,61.5815,298.5795,0,U,21610,999,83737,.48798445E-4,.122E-5,0
INTERCOSMOS 25,1991-086A,2026-07-15T12:08:27.606048,12.12240510,.14845971,82.6007,232.6730,201.2546,152.0077,0,U,21819,999,51217,.17864439E-4,.105E-5,0
SL-8 R/B,1992-008B,2026-07-15T22:05:47.436288,13.75983933,.00357068,82.9272,172.4240,134.6356,282.1842,0,U,21876,999,72705,.82466321E-4,.96E-6,0
SL-8 R/B,1992-020B,2026-07-15T13:38:37.371840,13.75550220,.00279431,82.9280,58.7729,302.4251,121.9465,0,U,21938,999,71871,-.1544878E-5,.13E-6,0
USA 81,1992-023A,2026-07-15T03:32:17.350656,14.32404929,.00019781,85.0051,57.8662,64.8606,295.2791,0,U,21949,999,11303,.31870867E-4,.106E-5,0
COSMOS 2219,1992-076A,2026-07-15T21:50:16.420992,14.14108464,.00183145,71.0611,110.0296,356.3782,3.7204,0,U,22219,999,73650,-.93862797E-4,-.226E-5,0
SL-16 R/B,1992-076B,2026-07-15T13:24:48.821760,14.16877561,.00150329,71.0005,279.0154,261.7211,195.1909,0,U,22220,999,73994,.88046647E-4,.129E-5,0
COSMOS 2221,1992-080A,2026-07-15T22:56:58.355808,14.96605212,.00157659,82.5046,156.2013,117.9325,242.3495,0,U,22236,999,79997,.70777309E-4,.834E-5,0
SL-16 R/B,1992-093B,2026-07-15T22:25:15.967776,14.15465528,.00022472,71.0217,95.0440,132.9289,227.2023,0,U,22285,999,73130,-.10237469E-3,-.248E-5,0
COSMOS 2228,1992-094A,2026-07-15T21:13:30.471744,14.97676715,.00163576,82.5188,114.5554,226.6527,133.3333,0,U,22286,999,79524,.66748654E-4,.81E-5,0
SL-16 R/B,1993-016B,2026-07-15T16:55:38.263872,14.15312880,.00088228,71.0085,306.3093,137.0399,223.1414,0,U,22566,999,72028,.14002109E-3,.225E-5,0
COSMOS 2242,1993-024A,2026-07-15T22:10:21.181728,14.96986094,.00147085,82.5198,144.0497,229.9287,130.0646,0,U,22626,999,79957,.74146471E-4,.881E-5,0
SL-16 R/B,1993-059B,2026-07-15T22:24:36.277344,14.17249388,.00166842,70.9901,100.6833,7.4228,352.7139,0,U,22803,999,69770,-.21453363E-4,-.91E-6,0
ARIANE 40 R/B,1993-061H,2026-07-15T18:21:37.331424,14.32918680,.00094977,98.4806,263.0265,263.8588,96.1514,0,U,22830,999,71244,.42214148E-4,.72E-6,0
COSMOS 2278,1994-023A,2026-07-15T12:51:52.762176,14.14393277,.00096155,71.0523,267.6132,205.0482,155.0175,0,U,23087,999,66288,.3365935E-4,.17E-6,0
SL-16 R/B,1994-023B,2026-07-15T07:30:47.858688,14.15024540,.00013972,70.9984,162.8641,127.7315,232.3935,0,U,23088,999,66414,.85856458E-4,.119E-5,0
SL-16 R/B,1994-074B,2026-07-15T23:00:31.037184,14.79524656,.00072265,97.6986,222.4796,152.0332,271.8272,0,U,23343,999,70621,.31249255E-4,.185E-5,0
